start=new Date('2023-01-01T00:00:00.000Z').valueOf();
sats=[{"MEAN_MOTION_DOT":"0.00005358","TLE_LINE2":"2 53715  53.2187  80.1025 0002231  33.6726 326.4408 15.08843947 18667","SITE":"AFETR","APOAPSIS":"541.277","DECAY_DATE":null,"REV_AT_EPOCH":"1866","NORAD_CAT_ID":"53715","OBJECT_NAME":"STARLINK-4686","REF_FRAME":"TEME","ECCENTRICITY":"0.00022310","MEAN_MOTION":"15.08843947","OBJECT_ID":"2022-107R","ELEMENT_SET_NO":"999","RA_OF_ASC_NODE":"80.1025","BSTAR":"0.00035444000000","RCS_SIZE":"LARGE","PERIOD":"95.437","MEAN_MOTION_DDOT":"0.0000000000000","ARG_OF_PERICENTER":"33.6726","COUNTRY_CODE":"US","EPHEMERIS_TYPE":"0","CLASSIFICATION_TYPE":"U","MEAN_ELEMENT_THEORY":"SGP4","FILE":"3727988","INCLINATION":"53.2187","GP_ID":"221838642","SEMIMAJOR_AXIS":"6917.868","EPOCH":"2022-12-31T11:51:48.372768","MEAN_ANOMALY":"326.4408","TIME_SYSTEM":"UTC","OBJECT_TYPE":"PAYLOAD","CENTER_NAME":"EARTH","TLE_LINE1":"1 53715U 22107R   22365.49430987  .00005358  00000-0  35444-3 0  9999","PERIAPSIS":"538.190","LAUNCH_DATE":"2022-09-05"},{"OBJECT_TYPE":"PAYLOAD","TLE_LINE1":"1 53716U 22107S   22365.62310229  .00005550  00000-0  36632-3 0  9995","PERIAPSIS":"538.599","LAUNCH_DATE":"2022-09-05","CENTER_NAME":"EARTH","MEAN_ANOMALY":"306.5867","SEMIMAJOR_AXIS":"6917.823","EPOCH":"2022-12-31T14:57:16.037856","TIME_SYSTEM":"UTC","INCLINATION":"53.2190","FILE":"3728081","MEAN_ELEMENT_THEORY":"SGP4","GP_ID":"221892693","EPHEMERIS_TYPE":"0","CLASSIFICATION_TYPE":"U","PERIOD":"95.436","RCS_SIZE":"LARGE","MEAN_MOTION_DDOT":"0.0000000000000","COUNTRY_CODE":"US","ARG_OF_PERICENTER":"53.5270","ELEMENT_SET_NO":"999","RA_OF_ASC_NODE":"79.4861","MEAN_MOTION":"15.08858680","OBJECT_ID":"2022-107S","BSTAR":"0.00036632000000","NORAD_CAT_ID":"53716","OBJECT_NAME":"STARLINK-4699","DECAY_DATE":null,"REV_AT_EPOCH":"1867","ECCENTRICITY":"0.00015750","REF_FRAME":"TEME","MEAN_MOTION_DOT":"0.00005550","SITE":"AFETR","TLE_LINE2":"2 53716  53.2190  79.4861 0001575  53.5270 306.5867 15.08858680 18675","APOAPSIS":"540.778"},{"MEAN_MOTION_DOT":"0.00004928","APOAPSIS":"541.195","TLE_LINE2":"2 53718  53.2185  79.1638 0002100  43.7381 316.3777 15.08840886 18688","SITE":"AFETR","DECAY_DATE":null,"REV_AT_EPOCH":"1868","NORAD_CAT_ID":"53718","OBJECT_NAME":"STARLINK-4695","REF_FRAME":"TEME","ECCENTRICITY":"0.00021000","MEAN_MOTION":"15.08840886","OBJECT_ID":"2022-107U","ELEMENT_SET_NO":"999","RA_OF_ASC_NODE":"79.1638","BSTAR":"0.00032749000000","RCS_SIZE":"LARGE","PERIOD":"95.437","MEAN_MOTION_DDOT":"0.0000000000000","COUNTRY_CODE":"US","ARG_OF_PERICENTER":"43.7381","EPHEMERIS_TYPE":"0","CLASSIFICATION_TYPE":"U","MEAN_ELEMENT_THEORY":"SGP4","FILE":"3728081","INCLINATION":"53.2185","GP_ID":"221893380","SEMIMAJOR_AXIS":"6917.878","EPOCH":"2022-12-31T16:27:22.168800","MEAN_ANOMALY":"316.3777","TIME_SYSTEM":"UTC","OBJECT_TYPE":"PAYLOAD","CENTER_NAME":"EARTH","PERIAPSIS":"538.290","TLE_LINE1":"1 53718U 22107U   22365.68567325  .00004928  00000-0  32749-3 0  9997","LAUNCH_DATE":"2022-09-05"},{"OBJECT_TYPE":"PAYLOAD","CENTER_NAME":"EARTH","LAUNCH_DATE":"2022-09-05","TLE_LINE1":"1 53719U 22107V   22365.43566907  .00010983  00000-0  35846-3 0  9995","PERIAPSIS":"467.299","SEMIMAJOR_AXIS":"6847.089","EPOCH":"2022-12-31T10:27:21.807648","MEAN_ANOMALY":"288.4713","TIME_SYSTEM":"UTC","FILE":"3727988","MEAN_ELEMENT_THEORY":"SGP4","INCLINATION":"53.2154","GP_ID":"221838417","EPHEMERIS_TYPE":"0","CLASSIFICATION_TYPE":"U","RCS_SIZE":"LARGE","PERIOD":"93.976","ARG_OF_PERICENTER":"71.6552","COUNTRY_CODE":"US","MEAN_MOTION_DDOT":"0.0000000000000","OBJECT_ID":"2022-107V","MEAN_MOTION":"15.32300158","RA_OF_ASC_NODE":"54.6938","ELEMENT_SET_NO":"999","BSTAR":"0.00035846000000","REV_AT_EPOCH":"1901","DECAY_DATE":null,"OBJECT_NAME":"STARLINK-4644","NORAD_CAT_ID":"53719","REF_FRAME":"TEME","ECCENTRICITY":"0.00024160","MEAN_MOTION_DOT":"0.00010983","SITE":"AFETR","TLE_LINE2":"2 53719  53.2154  54.6938 0002416  71.6552 288.4713 15.32300158 19013","APOAPSIS":"470.608"},{"MEAN_MOTION_DDOT":"0.0000000000000","COUNTRY_CODE":"US","ARG_OF_PERICENTER":"22.3551","RCS_SIZE":"LARGE","PERIOD":"95.437","BSTAR":"0.00029634000000","OBJECT_ID":"2022-107W","MEAN_MOTION":"15.08846422","ELEMENT_SET_NO":"999","RA_OF_ASC_NODE":"79.5325","REF_FRAME":"TEME","ECCENTRICITY":"0.00026230","DECAY_DATE":null,"REV_AT_EPOCH":"1868","NORAD_CAT_ID":"53720","OBJECT_NAME":"STARLINK-4642","TLE_LINE2":"2 53720  53.2187  79.5325 0002623  22.3551 337.7555 15.08846422 18685","APOAPSIS":"541.540","SITE":"AFETR","MEAN_MOTION_DOT":"0.00004432","CENTER_NAME":"EARTH","TLE_LINE1":"1 53720U 22107W   22365.63047135  .00004432  00000-0  29634-3 0  9996","PERIAPSIS":"537.911","LAUNCH_DATE":"2022-09-05","OBJECT_TYPE":"PAYLOAD","TIME_SYSTEM":"UTC","SEMIMAJOR_AXIS":"6917.861","EPOCH":"2022-12-31T15:07:52.724640","MEAN_ANOMALY":"337.7555","GP_ID":"221892930","FILE":"3728081","MEAN_ELEMENT_THEORY":"SGP4","INCLINATION":"53.2187","CLASSIFICATION_TYPE":"U","EPHEMERIS_TYPE":"0"},{"EPHEMERIS_TYPE":"0","CLASSIFICATION_TYPE":"U","INCLINATION":"53.2196","MEAN_ELEMENT_THEORY":"SGP4","FILE":"3727988","GP_ID":"221838868","MEAN_ANOMALY":"328.2487","SEMIMAJOR_AXIS":"6917.862","EPOCH":"2022-12-31T12:07:42.782592","TIME_SYSTEM":"UTC","OBJECT_TYPE":"PAYLOAD","TLE_LINE1":"1 53721U 22107X   22365.50535628  .00004468  00000-0  29857-3 0  9998","PERIAPSIS":"538.297","LAUNCH_DATE":"2022-09-05","CENTER_NAME":"EARTH","MEAN_MOTION_DOT":"0.00004468","SITE":"AFETR","TLE_LINE2":"2 53721  53.2196  80.1726 0002067  31.8629 328.2487 15.08846062 18669","APOAPSIS":"541.157","NORAD_CAT_ID":"53721","OBJECT_NAME":"STARLINK-4707","DECAY_DATE":null,"REV_AT_EPOCH":"1866","ECCENTRICITY":"0.00020670","REF_FRAME":"TEME","ELEMENT_SET_NO":"999","RA_OF_ASC_NODE":"80.1726","MEAN_MOTION":"15.08846062","OBJECT_ID":"2022-107X","BSTAR":"0.00029857000000","PERIOD":"95.437","RCS_SIZE":"LARGE","MEAN_MOTION_DDOT":"0.0000000000000","COUNTRY_CODE":"US","ARG_OF_PERICENTER":"31.8629"},{"OBJECT_TYPE":"PAYLOAD","CENTER_NAME":"EARTH","LAUNCH_DATE":"2022-09-05","PERIAPSIS":"538.953","TLE_LINE1":"1 53722U 22107Y   22365.63144606  .00009397  00000-0  60746-3 0  9993","SEMIMAJOR_AXIS":"6917.829","EPOCH":"2022-12-31T15:09:16.939584","MEAN_ANOMALY":"269.1081","TIME_SYSTEM":"UTC","MEAN_ELEMENT_THEORY":"SGP4","FILE":"3728081","INCLINATION":"53.2181","GP_ID":"221893820","EPHEMERIS_TYPE":"0","CLASSIFICATION_TYPE":"U","RCS_SIZE":"LARGE","PERIOD":"95.436","ARG_OF_PERICENTER":"91.0034","COUNTRY_CODE":"US","MEAN_MOTION_DDOT":"0.0000000000000","OBJECT_ID":"2022-107Y","MEAN_MOTION":"15.08856965","RA_OF_ASC_NODE":"79.5415","ELEMENT_SET_NO":"999","BSTAR":"0.00060746000000","REV_AT_EPOCH":"1867","DECAY_DATE":null,"OBJECT_NAME":"STARLINK-4700","NORAD_CAT_ID":"53722","REF_FRAME":"TEME","ECCENTRICITY":"0.00010710","MEAN_MOTION_DOT":"0.00009397","TLE_LINE2":"2 53722  53.2181  79.5415 0001071  91.0034 269.1081 15.08856965 18670","SITE":"AFETR","APOAPSIS":"540.434"},{"OBJECT_NAME":"STARLINK-4705","NORAD_CAT_ID":"53723","REV_AT_EPOCH":"1882","DECAY_DATE":null,"ECCENTRICITY":"0.00023360","REF_FRAME":"TEME","MEAN_MOTION_DOT":"0.00004446","TLE_LINE2":"2 53723  53.2188  79.6256 0002336  32.4141 327.6994 15.08837208 18824","SITE":"AFETR","APOAPSIS":"541.370","PERIOD":"95.438","RCS_SIZE":"LARGE","COUNTRY_CODE":"US","ARG_OF_PERICENTER":"32.4141","MEAN_MOTION_DDOT":"0.0000000000000","RA_OF_ASC_NODE":"79.6256","ELEMENT_SET_NO":"999","MEAN_MOTION":"15.08837208","OBJECT_ID":"2022-107Z","BSTAR":"0.00029726000000","INCLINATION":"53.2188","MEAN_ELEMENT_THEORY":"SGP4","FILE":"3728081","GP_ID":"221893595","EPHEMERIS_TYPE":"0","CLASSIFICATION_TYPE":"U","OBJECT_TYPE":"PAYLOAD","LAUNCH_DATE":"2022-09-05","TLE_LINE1":"1 53723U 22107Z   22365.64521528  .00004446  00000-0  29726-3 0  9990","PERIAPSIS":"538.138","CENTER_NAME":"EARTH","MEAN_ANOMALY":"327.6994","SEMIMAJOR_AXIS":"6917.889","EPOCH":"2022-12-31T15:29:06.600192","TIME_SYSTEM":"UTC"},{"CENTER_NAME":"EARTH","TLE_LINE1":"1 53724U 22107AA  22365.63415333  .00002740  00000-0  19016-3 0  9992","PERIAPSIS":"538.013","LAUNCH_DATE":"2022-09-05","OBJECT_TYPE":"PAYLOAD","TIME_SYSTEM":"UTC","EPOCH":"2022-12-31T15:13:10.847712","SEMIMAJOR_AXIS":"6917.870","MEAN_ANOMALY":"331.4894","GP_ID":"221892469","MEAN_ELEMENT_THEORY":"SGP4","FILE":"3728081","INCLINATION":"53.2194","CLASSIFICATION_TYPE":"U","EPHEMERIS_TYPE":"0","MEAN_MOTION_DDOT":"0.0000000000000","COUNTRY_CODE":"US","ARG_OF_PERICENTER":"28.6234","RCS_SIZE":"LARGE","PERIOD":"95.437","BSTAR":"0.00019016000000","OBJECT_ID":"2022-107AA","MEAN_MOTION":"15.08843278","ELEMENT_SET_NO":"999","RA_OF_ASC_NODE":"79.5570","REF_FRAME":"TEME","ECCENTRICITY":"0.00024900","DECAY_DATE":null,"REV_AT_EPOCH":"1868","NORAD_CAT_ID":"53724","OBJECT_NAME":"STARLINK-4663","TLE_LINE2":"2 53724  53.2194  79.5570 0002490  28.6234 331.4894 15.08843278 18681","APOAPSIS":"541.458","SITE":"AFETR","MEAN_MOTION_DOT":"0.00002740"},{"TIME_SYSTEM":"UTC","MEAN_ANOMALY":"329.5791","SEMIMAJOR_AXIS":"6917.841","EPOCH":"2022-12-31T16:59:11.308992","TLE_LINE1":"1 53726U 22107AC  22365.70776978  .00005199  00000-0  34441-3 0  9997","PERIAPSIS":"538.005","LAUNCH_DATE":"2022-09-05","CENTER_NAME":"EARTH","OBJECT_TYPE":"PAYLOAD","CLASSIFICATION_TYPE":"U","EPHEMERIS_TYPE":"0","GP_ID":"221892694","INCLINATION":"53.2179","MEAN_ELEMENT_THEORY":"SGP4","FILE":"3728081","BSTAR":"0.00034441000000","ELEMENT_SET_NO":"999","RA_OF_ASC_NODE":"79.3027","MEAN_MOTION":"15.08852968","OBJECT_ID":"2022-107AC","MEAN_MOTION_DDOT":"0.0000000000000","ARG_OF_PERICENTER":"30.5344","COUNTRY_CODE":"US","PERIOD":"95.437","RCS_SIZE":"LARGE","APOAPSIS":"541.406","TLE_LINE2":"2 53726  53.2179  79.3027 0002458  30.5344 329.5791 15.08852968 18690","SITE":"AFETR","MEAN_MOTION_DOT":"0.00005199","ECCENTRICITY":"0.00024580","REF_FRAME":"TEME","NORAD_CAT_ID":"53726","OBJECT_NAME":"STARLINK-4697","DECAY_DATE":null,"REV_AT_EPOCH":"1869"}];
